GEOSCAN 3 (RS92S3)      
1 64893U 25155T   26156.26490374  .00017665  00000+0  52225-3 0  9996
2 64893  97.4538 126.0070 0004882 201.5795 158.5243 15.34979325 79029
INNOSAT 3 (RS92S0)      
1 64894U 25155U   26156.25358125  .00034573  00000+0  78499-3 0  9991
2 64894  97.4490 127.4721 0004243 183.0885 177.0337 15.42955103 79128
KNACKSAT-2              
1 67683U 98067XZ  26156.11067754  .00054547  00000+0  69168-3 0  9998
2 67683  51.6316 355.1703 0010742 163.6532 196.4809 15.58840087 18392
