OBJECT_NAME,OBJECT_ID,EPOCH,MEAN_MOTION,ECCENTRICITY,INCLINATION,RA_OF_ASC_NODE,ARG_OF_PERICENTER,MEAN_ANOMALY,EPHEMERIS_TYPE,CLASSIFICATION_TYPE,NORAD_CAT_ID,ELEMENT_SET_NO,REV_AT_EPOCH,BSTAR,MEAN_MOTION_DOT,MEAN_MOTION_DDOT
GEOSCAN 3 (RS92S3),2025-155T,2026-06-05T06:21:27.683136,15.34979325,.00048828,97.4538,126.0070,201.5795,158.5243,0,U,64893,999,7902,.52224737E-3,.17665E-3,0
INNOSAT 3 (RS92S0),2025-155U,2026-06-05T06:05:09.420000,15.42955103,.00042439,97.4490,127.4721,183.0885,177.0337,0,U,64894,999,7912,.78499458E-3,.34573E-3,0
KNACKSAT-2,1998-067XZ,2026-06-05T02:39:22.539456,15.58840087,.00107425,51.6316,355.1703,163.6532,196.4809,0,U,67683,999,1839,.6916844E-3,.54547E-3,0
